NORAD_CAT_ID,OBJECT_NAME,OBJECT_TYPE,EPOCH,MEAN_MOTION,ECCENTRICITY,INCLINATION,RA_OF_ASC_NODE,ARG_OF_PERICENTER,MEAN_ANOMALY,BSTAR,MEAN_MOTION_DOT,MEAN_MOTION_DDOT,TLE_LINE0,TLE_LINE1,TLE_LINE2,SEMIMAJOR_AXIS,PERIOD,APOGEE,PERIGEE,DECAYED
51715.0,STARLINK-3533,PAYLOAD,2024-02-19 19:50:14,15.08839052,0.0001677,53.2183,90.9105,85.4445,274.6739,4.1889e-05,3.79e-06,0.0,0 STARLINK-3533,1 51715U 22016B   24050.82655933  .00000379  00000-0  41889-4 0  9995,2 51715  53.2183  90.9105 0001677  85.4445 274.6739 15.08839052111505,6917.883,95.438,540.908,538.588,0.0
51715.0,STARLINK-3533,PAYLOAD,2024-02-20 11:44:05,15.08847872,0.0001281,53.2168,87.9339,85.7734,274.3404,3.3126e-05,2.39e-06,0.0,0 STARLINK-3533,1 51715U 22016B   24051.48895307  .00000239  00000-0  33126-4 0  9999,2 51715  53.2168  87.9339 0001281  85.7734 274.3404 15.08847872111604,6917.856,95.437,540.608,538.835,0.0
51715.0,STARLINK-3533,PAYLOAD,2024-02-20 19:41:01,15.08844241,0.0001254,53.2165,86.4451,84.3709,275.7426,-8.9466e-05,-1.712e-05,0.0,0 STARLINK-3533,1 51715U 22016B   24051.82015698 -.00001712  00000-0 -89466-4 0  9991,2 51715  53.2165  86.4451 0001254  84.3709 275.7426 15.08844241111658,6917.867,95.437,540.6,538.865,0.0
51715.0,STARLINK-3533,PAYLOAD,2024-02-21 08:24:06,15.0884145,0.0001566,53.2185,84.0662,79.4859,280.631,3.2756e-05,2.33e-06,0.0,0 STARLINK-3533,1 51715U 22016B   24052.35007825  .00000233  00000-0  32756-4 0  9998,2 51715  53.2185  84.0662 0001566  79.4859 280.6310 15.08841450111730,6917.876,95.437,540.824,538.658,0.0
51715.0,STARLINK-3533,PAYLOAD,2024-02-21 19:31:46,15.08862706,0.0001262,53.2172,81.9858,94.2077,265.9059,0.0002348,3.453e-05,0.0,0 STARLINK-3533,1 51715U 22016B   24052.81373318  .00003453  00000-0  23480-3 0  9992,2 51715  53.2172  81.9858 0001262  94.2077 265.9059 15.08862706111800,6917.811,95.436,540.549,538.803,0.0
51715.0,STARLINK-3533,PAYLOAD,2024-02-22 08:14:50,15.08863729,0.0001402,53.2166,79.6075,92.3116,267.8036,0.0002392,3.523e-05,0.0,0 STARLINK-3533,1 51715U 22016B   24053.34364458  .00003523  00000-0  23920-3 0  9993,2 51715  53.2166  79.6075 0001402  92.3116 267.8036 15.08863729111887,6917.808,95.436,540.643,538.703,0.0
51715.0,STARLINK-3533,PAYLOAD,2024-02-23 08:05:34,15.08885138,0.0001523,53.2176,75.1479,86.2213,273.8953,0.00032466,4.889e-05,0.0,0 STARLINK-3533,1 51715U 22016B   24054.33720837  .00004889  00000-0  32466-3 0  9991,2 51715  53.2176  75.1479 0001523  86.2213 273.8953 15.08885138112032,6917.742,95.435,540.661,538.554,0.0
51715.0,STARLINK-3533,PAYLOAD,2024-02-24 04:45:36,15.08735715,0.000117,53.2176,71.2815,161.9998,198.1036,0.0032096,0.00051016,0.0,0 STARLINK-3533,1 51715U 22016B   24055.19834222  .00051016  00000-0  32096-2 0  9992,2 51715  53.2176  71.2815 0001170 161.9998 198.1036 15.08735715112162,6918.199,95.444,540.874,539.255,0.0
51715.0,STARLINK-3533,PAYLOAD,2024-02-24 07:56:15,15.089449,0.000129,53.2173,70.6873,80.4345,279.6793,0.00012109,1.645e-05,0.0,0 STARLINK-3533,1 51715U 22016B   24055.33073124  .00001645  00000-0  12109-3 0  9991,2 51715  53.2173  70.6873 0001290  80.4345 279.6793 15.08944900112185,6917.56,95.431,540.317,538.532,0.0
51715.0,STARLINK-3533,PAYLOAD,2024-02-24 12:42:24,15.08942026,0.0001463,53.2163,69.7947,89.9293,270.1866,0.00069704,0.00010854,0.0,0 STARLINK-3533,1 51715U 22016B   24055.52945241  .00010854  00000-0  69704-3 0  9995,2 51715  53.2163  69.7947 0001463  89.9293 270.1866 15.08942026112211,6917.569,95.431,540.446,538.422,0.0
51715.0,STARLINK-3533,PAYLOAD,2024-02-24 17:28:32,15.08955648,0.0001554,53.2169,68.9034,91.3547,268.7623,0.00085267,0.00013351,0.0,0 STARLINK-3533,1 51715U 22016B   24055.72815729  .00013351  00000-0  85267-3 0  9991,2 51715  53.2169  68.9034 0001554  91.3547 268.7623 15.08955648112246,6917.527,95.43,540.467,538.317,0.0
51715.0,STARLINK-3533,PAYLOAD,2024-02-25 04:36:10,15.0898762,0.0001512,53.2162,66.8206,91.2582,268.8584,0.0012025,0.00018979,0.0,0 STARLINK-3533,1 51715U 22016B   24056.19179256  .00018979  00000-0  12025-2 0  9993,2 51715  53.2162  66.8206 0001512  91.2582 268.8584 15.08987620112319,6917.429,95.428,540.34,538.248,0.0
51715.0,STARLINK-3533,PAYLOAD,2024-02-25 07:46:55,15.08994871,0.000153,53.2162,66.2259,91.939,268.1778,0.0013004,0.00020556,0.0,0 STARLINK-3533,1 51715U 22016B   24056.32425903  .00020556  00000-0  13004-2 0  9993,2 51715  53.2162  66.2259 0001530  91.9390 268.1778 15.08994871112331,6917.407,95.428,540.33,538.214,0.0
51715.0,STARLINK-3533,PAYLOAD,2024-02-25 17:19:11,15.09015068,0.0001539,53.2161,64.4413,93.2497,266.8671,0.001498,0.00023748,0.0,0 STARLINK-3533,1 51715U 22016B   24056.72165527  .00023748  00000-0  14980-2 0  9990,2 51715  53.2161  64.4413 0001539  93.2497 266.8671 15.09015068112390,6917.345,95.426,540.275,538.146,0.0
51715.0,STARLINK-3533,PAYLOAD,2024-02-26 07:37:32,15.09039593,0.0001556,53.2159,61.7648,94.0848,266.0323,0.001461,0.00023168,0.0,0 STARLINK-3533,1 51715U 22016B   24057.31774129  .00023168  00000-0  14610-2 0  9996,2 51715  53.2159  61.7648 0001556  94.0848 266.0323 15.09039593112480,6917.27,95.425,540.212,538.059,0.0
51715.0,STARLINK-3533,PAYLOAD,2024-02-26 23:31:22,15.08916167,0.000213,53.2163,58.7906,96.6099,263.5136,0.00038475,5.853e-05,0.0,0 STARLINK-3533,1 51715U 22016B   24057.98011951  .00005853  00000-0  38475-3 0  9993,2 51715  53.2163  58.7906 0002130  96.6099 263.5136 15.08916167112588,6917.648,95.433,540.986,538.039,0.0
51715.0,STARLINK-3533,PAYLOAD,2024-02-27 09:03:42,15.08779205,0.0001824,53.2169,57.0079,66.9547,293.1638,0.0012744,0.00020019,0.0,0 STARLINK-3533,1 51715U 22016B   24058.37757864  .00020019  00000-0  12744-2 0  9998,2 51715  53.2169  57.0079 0001824  66.9547 293.1638 15.08779205112647,6918.066,95.441,541.193,538.669,0.0
51715.0,STARLINK-3533,PAYLOAD,2024-02-27 13:49:52,15.08774902,0.0001622,53.2159,56.1151,78.7998,281.3176,0.00098081,0.00015328,0.0,0 STARLINK-3533,1 51715U 22016B   24058.57630750  .00015328  00000-0  98081-3 0  9990,2 51715  53.2159  56.1151 0001622  78.7998 281.3176 15.08774902112672,6918.079,95.442,541.066,538.822,0.0
51715.0,STARLINK-3533,PAYLOAD,2024-02-28 04:08:24,15.08757162,0.0001593,53.2157,53.4401,92.3436,267.7739,0.0011235,0.00017597,0.0,0 STARLINK-3533,1 51715U 22016B   24059.17250324  .00017597  00000-0  11235-2 0  9997,2 51715  53.2157  53.4401 0001593  92.3436 267.7739 15.08757162112766,6918.134,95.443,541.101,538.897,0.0
51715.0,STARLINK-3533,PAYLOAD,2024-02-28 07:19:11,15.08763273,0.0001626,53.2163,52.8456,82.1828,277.9349,0.0010811,0.00016924,0.0,0 STARLINK-3533,1 51715U 22016B   24059.30499017  .00016924  00000-0  10811-2 0  9998,2 51715  53.2163  52.8456 0001626  82.1828 277.9349 15.08763273112787,6918.115,95.442,541.105,538.855,0.0
51715.0,STARLINK-3533,PAYLOAD,2024-02-28 16:51:32,15.0873518,0.0001645,53.2183,51.0588,82.7092,277.4087,-0.00010395,-1.937e-05,0.0,0 STARLINK-3533,1 51715U 22016B   24059.70246187 -.00001937  00000-0 -10395-3 0  9998,2 51715  53.2183  51.0588 0001645  82.7092 277.4087 15.08735180112843,6918.201,95.444,541.204,538.928,0.0
51715.0,STARLINK-3533,PAYLOAD,2024-02-29 05:34:42,15.08696573,0.0001571,53.2165,48.6816,80.4644,279.6526,-0.00045669,-7.52e-05,0.0,0 STARLINK-3533,1 51715U 22016B   24060.23243558 -.00007520  00000-0 -45669-3 0  9993,2 51715  53.2165  48.6816 0001571  80.4644 279.6526 15.08696573112928,6918.319,95.447,541.271,539.097,0.0
51715.0,STARLINK-3533,PAYLOAD,2024-02-29 08:45:29,15.08696195,0.0001611,53.2168,48.0865,82.6916,277.426,-0.0001205,-2.197e-05,0.0,0 STARLINK-3533,1 51715U 22016B   24060.36492907 -.00002197  00000-0 -12050-3 0  9994,2 51715  53.2168  48.0865 0001611  82.6916 277.4260 15.08696195112943,6918.32,95.447,541.3,539.07,0.0
51715.0,STARLINK-3533,PAYLOAD,2024-02-29 16:42:28,15.08704721,0.0001614,53.218,46.5988,87.6947,272.423,0.00017793,2.535e-05,0.0,0 STARLINK-3533,1 51715U 22016B   24060.69616023  .00002535  00000-0  17793-3 0  9990,2 51715  53.2180  46.5988 0001614  87.6947 272.4230 15.08704721112990,6918.294,95.446,541.276,539.042,0.0
51715.0,STARLINK-3533,PAYLOAD,2024-03-01 03:50:13,15.08717476,0.0001628,53.2164,44.5192,76.5017,283.6156,0.0011423,0.00017878,0.0,0 STARLINK-3533,1 51715U 22016B   24061.15988302  .00017878  00000-0  11423-2 0  9993,2 51715  53.2164  44.5192 0001628  76.5017 283.6156 15.08717476113068,6918.255,95.445,541.246,538.994,0.0
51715.0,STARLINK-3533,PAYLOAD,2024-03-01 05:25:37,15.08721991,0.0001622,53.217,44.2214,78.8477,281.2697,0.0012464,0.0001954,0.0,0 STARLINK-3533,1 51715U 22016B   24061.22612802  .00019540  00000-0  12464-2 0  9994,2 51715  53.2170  44.2214 0001622  78.8477 281.2697 15.08721991113078,6918.241,95.445,541.228,538.984,0.0
51715.0,STARLINK-3533,PAYLOAD,2024-03-02 03:41:06,15.08757945,0.0001621,53.2177,40.0583,81.3973,278.7203,0.0012242,0.00019205,0.0,0 STARLINK-3533,1 51715U 22016B   24062.15354863  .00019205  00000-0  12242-2 0  9999,2 51715  53.2177  40.0583 0001621  81.3973 278.7203 15.08757945113215,6918.131,95.443,541.118,538.875,0.0
51715.0,STARLINK-3533,PAYLOAD,2024-03-03 05:07:21,15.08786916,0.0001576,53.2179,35.3024,81.4898,278.6273,0.0010849,0.00016995,0.0,0 STARLINK-3533,1 51715U 22016B   24063.21343845  .00016995  00000-0  10849-2 0  9999,2 51715  53.2179  35.3024 0001576  81.4898 278.6273 15.08786916113373,6918.043,95.441,540.998,538.817,0.0
51715.0,STARLINK-3533,PAYLOAD,2024-03-03 08:18:07,15.08794995,0.0001551,53.217,34.7061,80.8843,279.2324,0.0012229,0.00019204,0.0,0 STARLINK-3533,1 51715U 22016B   24063.34592193  .00019204  00000-0  12229-2 0  9995,2 51715  53.2170  34.7061 0001551  80.8843 279.2324 15.08794995113396,6918.018,95.44,540.956,538.81,0.0
51715.0,STARLINK-3533,PAYLOAD,2024-03-04 04:58:09,15.08853255,0.0001602,53.2176,30.841,80.9247,279.1927,0.0019434,0.00030788,0.0,0 STARLINK-3533,1 51715U 22016B   24064.20704938  .00030788  00000-0  19434-2 0  9998,2 51715  53.2176  30.8410 0001602  80.9247 279.1927 15.08853255113521,6917.84,95.437,540.813,538.597,0.0
